#aV2012  9 13  0  0  0.00000000     288 DD+AD WGS84 FIT  NGA
## 1705 345600.00000000   300.00000000 56183 0.0000000000000
+   31     1  2  3  4  5  6  7  8  9 10 11 12 13 14 15 16 17
+         18 19 20 21 22 23 25 26 27 28 29 30 31 32  0  0  0
+          0  0  0  0  0  0  0  0  0  0  0  0  0  0  0  0  0
+          0  0  0  0  0  0  0  0  0  0  0  0  0  0  0  0  0
+          0  0  0  0  0  0  0  0  0  0  0  0  0  0  0  0  0
++         2  2  2  2  2  2  2  2  2  2  2  2  2  2  2  2  2
++         2  2  2  2  2  2  2  2  2  2  2  2  2  2  2  0  0
++         0  0  0  0  0  0  0  0  0  0  0  0  0  0  0  0  0
++         0  0  0  0  0  0  0  0  0  0  0  0  0  0  0  0  0
++         0  0  0  0  0  0  0  0  0  0  0  0  0  0  0  0  0
%c cc cc ccc ccc cccc cccc cccc cccc ccccc ccccc ccccc ccccc
%c cc cc ccc ccc cccc cccc cccc cccc ccccc ccccc ccccc ccccc
%f  0.0000000  0.000000000  0.00000000000  0.000000000000000
%f  0.0000000  0.000000000  0.00000000000  0.000000000000000
%i    0    0    0    0      0      0      0      0         0
%i    0    0    0    0      0      0      0      0         0
/*      NGA, ST. LOUIS,MO.                                  
/*   EPHEMERIS COMPUTED FROM  1 DAYS OF DATA
/*   EPOCHA SMOOTHER  
/* CCCCCCCCCCCCCCCCCCCCCCCCCCCCCCCCCCCCCCCCCCCCCCCCCCCCCCCCC
*  2012  9 13 11 10  0.00000000                                                 
P  1 -16732.925826 -13777.614703 -15400.139051    273.493166                    
V  1  19561.175132   1346.780371 -22427.835608      0.015341                    
P  2  -6211.760298  14784.686970  21264.864090    402.764980                    
V  2 -26381.479760  -4818.833171  -4892.551265      0.011995                    
P  3   7184.222257 -24003.041443  -8913.064399    101.026337                    
V  3   8665.460011  -7286.395264  28427.436580      0.051488                    
P  4 -20696.655049   7479.096951  14821.950100    303.196410                    
V  4 -18537.396645  -5629.113620 -22336.504355      0.112550                    
P  5     27.086557  23847.741276  11532.614234   -351.620677                    
V  5  -7718.859652 -12864.641736  26708.496946     -0.030330                    
P  6  12819.945717 -22645.732910  -4275.714943    -29.224469                    
V  6   6341.666663  -2310.435257  30828.852225     -0.085081                    
P  7 -25604.748622  -6989.957401   3076.835968    121.543675                    
V  7   4150.821180  -1314.231487  31591.773919      0.042881                    
P  8 -24853.128881   -227.187684 -10086.525792      2.146884                    
V  8 -11949.080710  -4401.907771  28725.915379      0.000486                    
P  9  12002.197845  14781.055142 -19040.706430    185.250939                    
V  9 -22851.487957  -2774.235162 -17117.870069      0.026456                    
P 10 -12545.492393   9916.239397  20889.014787    -51.612093                    
V 10  -9760.146434 -25463.142846   6549.863290     -0.013381                    
P 11 -11444.586369 -14649.395916 -19464.952490   -302.250555                    
V 11  23787.615355  -4198.671584 -10746.306974     -0.039672                    
P 12  11646.357862  23390.541742   5287.836318     90.666408                    
V 12    282.253577   6965.170904 -31134.817289      0.020284                    
P 13 -16849.878787  -2289.280774  20299.198908    181.439989                    
V 13  17905.224112 -18843.942776  12544.679229     -0.025743                    
P 14  21058.749953 -12940.453850  -9320.554301    212.531400                    
V 14  -6758.999837  10329.174870 -29159.656049      0.008973                    
P 15   2146.101957  18852.651015 -18500.924378    -95.286161                    
V 15 -16116.777822  17358.281997  16043.425403     -0.006645                    
P 16    772.858455 -23613.050274  11807.219076   -245.924585                    
V 16   6524.453893  13754.192023  27366.834162     -0.007945                    
P 17 -20759.958857  13170.970557  -9552.277874     96.878404                    
V 17   6332.879524 -11065.335700 -28713.636868     -0.033065                    
P 18  17353.363593   7808.525761 -18287.286296    214.747211                    
V 18   6437.786419  23184.126597  15327.453378      0.018210                    
P 19   1589.996241 -19371.977555 -17983.496256   -303.439135                    
V 19  17420.041881 -14898.765912  18049.573819     -0.035031                    
P 20 -14572.066377 -21069.054757   6991.198087     68.115931                    
V 20   -256.800082  -9780.441958 -29271.677132      0.007948                    
P 21  26363.908042   5183.824174    695.688728   -249.395040                    
V 21   -833.726422   3135.686897  30727.615196     -0.024078                    
P 22  13763.691719  -8271.687920 -20955.208651    147.842903                    
V 22   9659.812901  25435.112861  -3790.294899      0.004456                    
P 23  -8740.311752 -12972.515418  21474.780933    164.993542                    
V 23  18177.812110 -20246.073714  -5226.240881     -0.039191                    
P 25  16604.117889  13623.181575  15624.987743     42.685182                    
V 25   5388.662187  19206.404797 -22350.141555      0.012785                    
P 26 -10131.450061  21540.298138 -12012.823734   -282.258266                    
V 26 -11506.545026   8849.739544  27320.730265      0.130129                    
P 27   8846.765723  14609.787469 -19892.770266    430.794827                    
V 27 -26245.905570  -2844.174905 -12851.222462      0.041148                    
P 28 -14032.869224   3817.339929 -21669.321364    184.962449                    
V 28  -8594.118796 -27505.689498    495.725734      0.037344                    
P 29  14764.503891   5807.045785  21348.233754    355.017074                    
V 29 -17767.419338  20311.031935   6823.103978      0.040973                    
P 30   6497.007096 -16983.475085  19005.318016   -415.362017                    
V 30  12172.499629  21765.552311  14986.299737      0.196012                    
P 31  18288.586029  -8461.421279  17619.892593    274.100351                    
V 31  21243.052415   5259.950425 -19497.408996      0.024892                    
P 32  -7041.629620 -25890.674002     12.431809   -487.412763                    
V 32   2679.924350   -506.987850 -31206.121457     -0.040960                    
EOF
